NORAD_CAT_ID,OBJECT_NAME,OBJECT_TYPE,EPOCH,MEAN_MOTION,ECCENTRICITY,INCLINATION,RA_OF_ASC_NODE,ARG_OF_PERICENTER,MEAN_ANOMALY,BSTAR,MEAN_MOTION_DOT,MEAN_MOTION_DDOT,TLE_LINE0,TLE_LINE1,TLE_LINE2,SEMIMAJOR_AXIS,PERIOD,APOGEE,PERIGEE,DECAYED
55748.0,STARLINK-5580,PAYLOAD,2023-10-22 08:54:40,14.98332428,0.0002731,69.9994,276.3545,263.8261,96.2587,0.00020144,2.311e-05,0.0,0 STARLINK-5580,1 55748U 23028H   23295.37130549  .00002311  00000-0  20144-3 0  9998,2 55748  69.9994 276.3545 0002731 263.8261  96.2587 14.98332428 35829,6950.185,96.107,573.948,570.152,0.0
55748.0,STARLINK-5580,PAYLOAD,2023-10-23 02:32:10,14.9831125,0.0002655,69.998,274.5025,263.8289,96.2567,0.00033633,3.92e-05,0.0,0 STARLINK-5580,1 55748U 23028H   23296.10567469  .00003920  00000-0  33633-3 0  9999,2 55748  69.9980 274.5025 0002655 263.8289  96.2567 14.98311250 35932,6950.251,96.108,573.961,570.271,0.0
55748.0,STARLINK-5580,PAYLOAD,2023-10-23 08:56:43,14.98316855,0.0002532,69.9996,273.8298,262.2367,97.8504,8.7294e-05,9.48e-06,0.0,0 STARLINK-5580,1 55748U 23028H   23296.37271995  .00000948  00000-0  87294-4 0  9994,2 55748  69.9996 273.8298 0002532 262.2367  97.8504 14.98316855 35975,6950.234,96.108,573.858,570.339,0.0
55748.0,STARLINK-5580,PAYLOAD,2023-10-24 04:10:19,14.98325613,0.0002523,69.9999,271.81,264.1019,95.9852,-9.2416e-05,-1.195e-05,0.0,0 STARLINK-5580,1 55748U 23028H   23297.17383799 -.00001195  00000-0 -92416-4 0  9998,2 55748  69.9999 271.8100 0002523 264.1019  95.9852 14.98325613 36094,6950.206,96.107,573.825,570.318,0.0
55748.0,STARLINK-5580,PAYLOAD,2023-10-24 07:22:35,14.98333825,0.0002397,70.0003,271.474,267.6445,92.444,1.4013e-05,7.4e-07,0.0,0 STARLINK-5580,1 55748U 23028H   23297.30735092  .00000074  00000-0  14013-4 0  9990,2 55748  70.0003 271.4740 0002397 267.6445  92.4440 14.98333825 36111,6950.181,96.107,573.712,570.38,0.0
55748.0,STARLINK-5580,PAYLOAD,2023-10-25 07:24:36,14.98326338,0.0002251,70.0,268.9491,253.5846,106.5066,0.00010021,1.103e-05,0.0,0 STARLINK-5580,1 55748U 23028H   23298.30875148  .00001103  00000-0  10021-3 0  9996,2 55748  70.0000 268.9491 0002251 253.5846 106.5066 14.98326338 36268,6950.204,96.107,573.634,570.505,0.0
55748.0,STARLINK-5580,PAYLOAD,2023-10-26 07:26:36,14.98337242,0.0002767,69.9989,266.4232,264.7441,95.3403,5.8643e-05,6.07e-06,0.0,0 STARLINK-5580,1 55748U 23028H   23299.31014387  .00000607  00000-0  58643-4 0  9999,2 55748  69.9989 266.4232 0002767 264.7441  95.3403 14.98337242 36417,6950.17,96.107,573.959,570.112,0.0
55748.0,STARLINK-5580,PAYLOAD,2023-10-27 07:28:36,14.98339621,0.0002933,69.9988,263.8985,267.324,92.7583,0.00010737,1.189e-05,0.0,0 STARLINK-5580,1 55748U 23028H   23300.31153880  .00001189  00000-0  10737-3 0  9991,2 55748  69.9988 263.8985 0002933 267.3240  92.7583 14.98339621 36562,6950.163,96.106,574.067,569.99,0.0
55748.0,STARLINK-5580,PAYLOAD,2023-10-27 20:17:42,14.98327487,0.0002517,69.9999,262.5524,270.315,89.772,7.7909e-05,8.37e-06,0.0,0 STARLINK-5580,1 55748U 23028H   23300.84562650  .00000837  00000-0  77909-4 0  9992,2 55748  69.9999 262.5524 0002517 270.3150  89.7720 14.98327487 36646,6950.201,96.107,573.815,570.316,0.0
55748.0,STARLINK-5580,PAYLOAD,2023-10-27 21:53:50,14.98320322,0.0002543,70.0004,262.3827,259.7187,100.3685,4.1091e-05,3.97e-06,0.0,0 STARLINK-5580,1 55748U 23028H   23300.91239122  .00000397  00000-0  41091-4 0  9999,2 55748  70.0004 262.3827 0002543 259.7187 100.3685 14.98320322 36652,6950.223,96.108,573.855,570.32,0.0
55748.0,STARLINK-5580,PAYLOAD,2023-10-28 01:06:06,14.98324192,0.0002882,69.9987,262.046,265.5178,94.5651,-6.095e-05,-8.2e-06,0.0,0 STARLINK-5580,1 55748U 23028H   23301.04591276 -.00000820  00000-0 -60950-4 0  9993,2 55748  69.9987 262.0460 0002882 265.5178  94.5651 14.98324192 36678,6950.211,96.107,574.079,570.073,0.0
55748.0,STARLINK-5580,PAYLOAD,2023-10-28 07:30:38,14.98324717,0.0003054,69.999,261.3732,261.5519,98.5294,1.2627e-05,5.8e-07,0.0,0 STARLINK-5580,1 55748U 23028H   23301.31295068  .00000058  00000-0  12627-4 0  9992,2 55748  69.9990 261.3732 0003054 261.5519  98.5294 14.98324717 36718,6950.209,96.107,574.197,569.952,0.0
55748.0,STARLINK-5580,PAYLOAD,2023-10-28 21:55:51,14.98333738,0.0003021,69.9985,259.8587,269.8438,90.2374,-3.262e-06,-1.32e-06,0.0,0 STARLINK-5580,1 55748U 23028H   23301.91378693 -.00000132  00000-0 -32620-5 0  9995,2 55748  69.9985 259.8587 0003021 269.8438  90.2374 14.98333738 36808,6950.181,96.107,574.146,569.947,0.0
55748.0,STARLINK-5580,PAYLOAD,2023-10-29 04:20:17,14.98411211,0.0003331,69.9986,259.1847,267.6018,92.476,0.00096949,0.00011518,0.0,0 STARLINK-5580,1 55748U 23028H   23302.18075644  .00011518  00000-0  96949-3 0  9995,2 55748  69.9986 259.1847 0003331 267.6018  92.4760 14.98411211 36845,6949.942,96.102,574.122,569.492,0.0
55748.0,STARLINK-5580,PAYLOAD,2023-10-29 07:32:38,14.98344026,0.00029,69.9987,258.8486,268.1246,91.9581,0.00019817,2.273e-05,0.0,0 STARLINK-5580,1 55748U 23028H   23302.31433437  .00002273  00000-0  19817-3 0  9995,2 55748  69.9987 258.8486 0002900 268.1246  91.9581 14.98344026 36867,6950.15,96.106,574.03,569.999,0.0
55748.0,STARLINK-5580,PAYLOAD,2023-10-29 13:57:11,14.98334061,0.0002818,69.9987,258.1746,275.1859,84.8978,-4.5989e-05,-6.42e-06,0.0,0 STARLINK-5580,1 55748U 23028H   23302.58138562 -.00000642  00000-0 -45989-4 0  9995,2 55748  69.9987 258.1746 0002818 275.1859  84.8978 14.98334061 36909,6950.18,96.107,574.004,570.087,0.0
55748.0,STARLINK-5580,PAYLOAD,2023-10-29 21:57:52,14.98322026,0.0002848,69.9991,257.3343,272.5202,87.5631,9.8227e-05,1.079e-05,0.0,0 STARLINK-5580,1 55748U 23028H   23302.91519025  .00001079  00000-0  98227-4 0  9995,2 55748  69.9991 257.3343 0002848 272.5202  87.5631 14.98322026 36953,6950.218,96.108,574.062,570.103,0.0
55748.0,STARLINK-5580,PAYLOAD,2023-10-30 04:22:24,14.98323087,0.0002817,69.9989,256.6608,272.2006,87.8831,9.7566e-05,1.071e-05,0.0,0 STARLINK-5580,1 55748U 23028H   23303.18223079  .00001071  00000-0  97566-4 0  9993,2 55748  69.9989 256.6608 0002817 272.2006  87.8831 14.98323087 36998,6950.214,96.107,574.037,570.121,0.0
55748.0,STARLINK-5580,PAYLOAD,2023-10-30 13:59:12,14.98356791,0.0003067,69.9989,255.6493,276.9026,83.1784,-0.00044194,-5.366e-05,0.0,0 STARLINK-5580,1 55748U 23028H   23303.58277937 -.00005366  00000-0 -44194-3 0  9990,2 55748  69.9989 255.6493 0003067 276.9026  83.1784 14.98356791 37052,6950.11,96.105,574.107,569.843,0.0
55748.0,STARLINK-5580,PAYLOAD,2023-10-30 21:59:53,14.9833314,0.0002719,69.999,254.8094,270.3962,89.6885,-6.2305e-05,-8.36e-06,0.0,0 STARLINK-5580,1 55748U 23028H   23303.91658987 -.00000836  00000-0 -62305-4 0  9997,2 55748  69.9990 254.8094 0002719 270.3962  89.6885 14.98333140 37104,6950.183,96.107,573.938,570.158,0.0
55748.0,STARLINK-5580,PAYLOAD,2023-10-31 04:24:25,14.98331138,0.0002668,69.9991,254.1363,264.6766,95.4089,-6.0378e-05,-8.13e-06,0.0,0 STARLINK-5580,1 55748U 23028H   23304.18363062 -.00000813  00000-0 -60378-4 0  9997,2 55748  69.9991 254.1363 0002668 264.6766  95.4089 14.98331138 37148,6950.189,96.107,573.909,570.2,0.0
55748.0,STARLINK-5580,PAYLOAD,2023-10-31 14:01:13,14.98338519,0.0002954,69.9989,253.1266,269.7617,90.3203,-7.6386e-05,-1.005e-05,0.0,0 STARLINK-5580,1 55748U 23028H   23304.58418524 -.00001005  00000-0 -76386-4 0  9995,2 55748  69.9989 253.1266 0002954 269.7617  90.3203 14.98338519 37204,6950.167,96.106,574.085,569.978,0.0
55748.0,STARLINK-5580,PAYLOAD,2023-10-31 22:01:53,14.98330311,0.0002945,69.9992,252.285,271.6912,88.391,0.00013324,1.497e-05,0.0,0 STARLINK-5580,1 55748U 23028H   23304.91798580  .00001497  00000-0  13324-3 0  9990,2 55748  69.9992 252.2850 0002945 271.6912  88.3910 14.98330311 37256,6950.192,96.107,574.104,570.01,0.0
55748.0,STARLINK-5580,PAYLOAD,2023-11-01 04:26:25,14.98335774,0.0003062,69.9991,251.6117,274.3139,85.767,0.00018034,2.06e-05,0.0,0 STARLINK-5580,1 55748U 23028H   23305.18502149  .00002060  00000-0  18034-3 0  9994,2 55748  69.9991 251.6117 0003062 274.3139  85.7670 14.98335774 37292,6950.175,96.107,574.168,569.912,0.0
55748.0,STARLINK-5580,PAYLOAD,2023-11-01 14:03:15,14.98323527,0.0002678,70.0003,250.5997,274.3709,85.7144,-1.5319e-05,-2.76e-06,0.0,0 STARLINK-5580,1 55748U 23028H   23305.58559412 -.00000276  00000-0 -15319-4 0  9996,2 55748  70.0003 250.5997 0002678 274.3709  85.7144 14.98323527 37354,6950.213,96.107,573.939,570.217,0.0
55748.0,STARLINK-5580,PAYLOAD,2023-11-01 20:27:47,14.98318337,0.0002788,69.9997,249.9265,272.9565,87.1275,4.6505e-05,4.62e-06,0.0,0 STARLINK-5580,1 55748U 23028H   23305.85263689  .00000462  00000-0  46505-4 0  9990,2 55748  69.9997 249.9265 0002788 272.9565  87.1275 14.98318337 37397,6950.229,96.108,574.032,570.156,0.0
55748.0,STARLINK-5580,PAYLOAD,2023-11-01 22:03:56,14.98313987,0.000301,69.9997,249.7566,271.516,88.5655,1.9368e-05,1.38e-06,0.0,0 STARLINK-5580,1 55748U 23028H   23305.91940008  .00000138  00000-0  19368-4 0  9991,2 55748  69.9997 249.7566 0003010 271.5160  88.5655 14.98313987 37409,6950.242,96.108,574.199,570.015,0.0
55748.0,STARLINK-5580,PAYLOAD,2023-11-02 14:05:16,14.98317048,0.0002693,69.9995,248.0759,276.361,83.7243,0.00019593,2.245e-05,0.0,0 STARLINK-5580,1 55748U 23028H   23306.58700072  .00002245  00000-0  19593-3 0  9990,2 55748  69.9995 248.0759 0002693 276.3610  83.7243 14.98317048 37505,6950.233,96.108,573.97,570.226,0.0
55748.0,STARLINK-5580,PAYLOAD,2023-11-02 20:29:48,14.9833191,0.0003269,69.9989,247.403,270.5414,89.537,5.9557e-05,6.18e-06,0.0,0 STARLINK-5580,1 55748U 23028H   23306.85403110  .00000618  00000-0  59557-4 0  9990,2 55748  69.9989 247.4030 0003269 270.5414  89.5370 14.98331910 37544,6950.187,96.107,574.324,569.78,0.0
55748.0,STARLINK-5580,PAYLOAD,2023-11-02 22:05:56,14.98334938,0.0003213,69.9993,247.2346,271.172,88.9071,0.00010036,1.105e-05,0.0,0 STARLINK-5580,1 55748U 23028H   23306.92078845  .00001105  00000-0  10036-3 0  9991,2 55748  69.9993 247.2346 0003213 271.1720  88.9071 14.98334938 37558,6950.178,96.107,574.276,569.81,0.0
